CCSDS_OMM_VERS = 2.0
CREATION_DATE  = 
ORIGINATOR     = 

OBJECT_NAME    = H-2A R/B
OBJECT_ID      = 2006-002B
CENTER_NAME    = EARTH
REF_FRAME      = TEME
TIME_SYSTEM    = UTC
MEAN_ELEMENT_THEORY = SGP/SGP4

EPOCH          = 2026-03-20T08:44:17.209248
MEAN_MOTION    = 15.16635921
ECCENTRICITY   = .00521907
INCLINATION    = 98.2431
RA_OF_ASC_NODE = 227.3087
ARG_OF_PERICENTER = 204.4299
MEAN_ANOMALY   = 155.4458

EPHEMERIS_TYPE = 0
CLASSIFICATION_TYPE = U
NORAD_CAT_ID   = 28932
ELEMENT_SET_NO = 999
REV_AT_EPOCH   = 9605
BSTAR          = .39303323E-3
MEAN_MOTION_DOT = .7879E-4
MEAN_MOTION_DDOT = 0

CCSDS_OMM_VERS = 2.0
CREATION_DATE  = 
ORIGINATOR     = 

OBJECT_NAME    = RESURS-DK 1
OBJECT_ID      = 2006-021A
CENTER_NAME    = EARTH
REF_FRAME      = TEME
TIME_SYSTEM    = UTC
MEAN_ELEMENT_THEORY = SGP/SGP4

EPOCH          = 2026-03-20T18:37:46.962336
MEAN_MOTION    = 15.12817965
ECCENTRICITY   = .0000782
INCLINATION    = 69.9338
RA_OF_ASC_NODE = 208.3434
ARG_OF_PERICENTER = 127.4072
MEAN_ANOMALY   = 232.7165

EPHEMERIS_TYPE = 0
CLASSIFICATION_TYPE = U
NORAD_CAT_ID   = 29228
ELEMENT_SET_NO = 999
REV_AT_EPOCH   = 8920
BSTAR          = .17014E-3
MEAN_MOTION_DOT = .2889E-4
MEAN_MOTION_DDOT = 0

CCSDS_OMM_VERS = 2.0
CREATION_DATE  = 
ORIGINATOR     = 

OBJECT_NAME    = CZ-4B R/B
OBJECT_ID      = 2006-046C
CENTER_NAME    = EARTH
REF_FRAME      = TEME
TIME_SYSTEM    = UTC
MEAN_ELEMENT_THEORY = SGP/SGP4

EPOCH          = 2026-03-20T08:40:10.400736
MEAN_MOTION    = 15.17002992
ECCENTRICITY   = .00320311
INCLINATION    = 97.5569
RA_OF_ASC_NODE = 124.2409
ARG_OF_PERICENTER = 228.6285
MEAN_ANOMALY   = 131.2193

EPHEMERIS_TYPE = 0
CLASSIFICATION_TYPE = U
NORAD_CAT_ID   = 29507
ELEMENT_SET_NO = 999
REV_AT_EPOCH   = 6166
BSTAR          = .17002509E-3
MEAN_MOTION_DOT = .3332E-4
MEAN_MOTION_DDOT = 0

CCSDS_OMM_VERS = 2.0
CREATION_DATE  = 
ORIGINATOR     = 

OBJECT_NAME    = CZ-2C R/B
OBJECT_ID      = 2007-010B
CENTER_NAME    = EARTH
REF_FRAME      = TEME
TIME_SYSTEM    = UTC
MEAN_ELEMENT_THEORY = SGP/SGP4

EPOCH          = 2026-03-20T20:34:07.125888
MEAN_MOTION    = 14.20250026
ECCENTRICITY   = .005786
INCLINATION    = 98.3989
RA_OF_ASC_NODE = 192.5766
ARG_OF_PERICENTER = 261.5037
MEAN_ANOMALY   = 97.9580

EPHEMERIS_TYPE = 0
CLASSIFICATION_TYPE = U
NORAD_CAT_ID   = 31114
ELEMENT_SET_NO = 999
REV_AT_EPOCH   = 98130
BSTAR          = .71474E-4
MEAN_MOTION_DOT = .114E-5
MEAN_MOTION_DDOT = 0

CCSDS_OMM_VERS = 2.0
CREATION_DATE  = 
ORIGINATOR     = 

OBJECT_NAME    = COSMO-SKYMED 1
OBJECT_ID      = 2007-023A
CENTER_NAME    = EARTH
REF_FRAME      = TEME
TIME_SYSTEM    = UTC
MEAN_ELEMENT_THEORY = SGP/SGP4

EPOCH          = 2026-03-20T19:55:23.594880
MEAN_MOTION    = 14.96619517
ECCENTRICITY   = .000136
INCLINATION    = 97.8880
RA_OF_ASC_NODE = 270.9531
ARG_OF_PERICENTER = 86.9387
MEAN_ANOMALY   = 273.1990

EPHEMERIS_TYPE = 0
CLASSIFICATION_TYPE = U
NORAD_CAT_ID   = 31598
ELEMENT_SET_NO = 999
REV_AT_EPOCH   = 1657
BSTAR          = .25535E-3
MEAN_MOTION_DOT = .285E-4
MEAN_MOTION_DDOT = 0

CCSDS_OMM_VERS = 2.0
CREATION_DATE  = 
ORIGINATOR     = 

OBJECT_NAME    = COSMOS 2428
OBJECT_ID      = 2007-029A
CENTER_NAME    = EARTH
REF_FRAME      = TEME
TIME_SYSTEM    = UTC
MEAN_ELEMENT_THEORY = SGP/SGP4

EPOCH          = 2026-03-20T10:29:29.858496
MEAN_MOTION    = 14.12947533
ECCENTRICITY   = .0009533
INCLINATION    = 70.9441
RA_OF_ASC_NODE = 180.7865
ARG_OF_PERICENTER = 266.0902
MEAN_ANOMALY   = 93.9129

EPHEMERIS_TYPE = 0
CLASSIFICATION_TYPE = U
NORAD_CAT_ID   = 31792
ELEMENT_SET_NO = 999
REV_AT_EPOCH   = 96561
BSTAR          = .17400902E-4
MEAN_MOTION_DOT = -.15E-6
MEAN_MOTION_DDOT = 0

CCSDS_OMM_VERS = 2.0
CREATION_DATE  = 
ORIGINATOR     = 

OBJECT_NAME    = SL-16 R/B
OBJECT_ID      = 2007-029B
CENTER_NAME    = EARTH
REF_FRAME      = TEME
TIME_SYSTEM    = UTC
MEAN_ELEMENT_THEORY = SGP/SGP4

EPOCH          = 2026-03-20T16:26:11.573952
MEAN_MOTION    = 14.14839672
ECCENTRICITY   = .0002368
INCLINATION    = 70.9756
RA_OF_ASC_NODE = 149.2735
ARG_OF_PERICENTER = 276.6412
MEAN_ANOMALY   = 252.3146

EPHEMERIS_TYPE = 0
CLASSIFICATION_TYPE = U
NORAD_CAT_ID   = 31793
ELEMENT_SET_NO = 999
REV_AT_EPOCH   = 96692
BSTAR          = .20393E-3
MEAN_MOTION_DOT = .346E-5
MEAN_MOTION_DDOT = 0

CCSDS_OMM_VERS = 2.0
CREATION_DATE  = 
ORIGINATOR     = 

OBJECT_NAME    = KORONAS-FOTON
OBJECT_ID      = 2009-003A
CENTER_NAME    = EARTH
REF_FRAME      = TEME
TIME_SYSTEM    = UTC
MEAN_ELEMENT_THEORY = SGP/SGP4

EPOCH          = 2026-03-20T20:24:48.301056
MEAN_MOTION    = 15.43580407
ECCENTRICITY   = .0011792
INCLINATION    = 82.4268
RA_OF_ASC_NODE = 264.2701
ARG_OF_PERICENTER = 113.2906
MEAN_ANOMALY   = 246.9584

EPHEMERIS_TYPE = 0
CLASSIFICATION_TYPE = U
NORAD_CAT_ID   = 33504
ELEMENT_SET_NO = 999
REV_AT_EPOCH   = 94746
BSTAR          = .2778E-3
MEAN_MOTION_DOT = .12552E-3
MEAN_MOTION_DDOT = 0

CCSDS_OMM_VERS = 2.0
CREATION_DATE  = 
ORIGINATOR     = 

OBJECT_NAME    = CZ-2C R/B
OBJECT_ID      = 2011-030B
CENTER_NAME    = EARTH
REF_FRAME      = TEME
TIME_SYSTEM    = UTC
MEAN_ELEMENT_THEORY = SGP/SGP4

EPOCH          = 2026-03-20T21:26:30.719040
MEAN_MOTION    = 14.81261278
ECCENTRICITY   = .0051495
INCLINATION    = 97.8564
RA_OF_ASC_NODE = 36.9338
ARG_OF_PERICENTER = 315.2259
MEAN_ANOMALY   = 107.4985

EPHEMERIS_TYPE = 0
CLASSIFICATION_TYPE = U
NORAD_CAT_ID   = 37731
ELEMENT_SET_NO = 999
REV_AT_EPOCH   = 79175
BSTAR          = .17423E-3
MEAN_MOTION_DOT = .1334E-4
MEAN_MOTION_DDOT = 0

CCSDS_OMM_VERS = 2.0
CREATION_DATE  = 
ORIGINATOR     = 

OBJECT_NAME    = H-2A R/B
OBJECT_ID      = 2012-025E
CENTER_NAME    = EARTH
REF_FRAME      = TEME
TIME_SYSTEM    = UTC
MEAN_ELEMENT_THEORY = SGP/SGP4

EPOCH          = 2026-03-20T20:05:54.284640
MEAN_MOTION    = 14.95240105
ECCENTRICITY   = .0043087
INCLINATION    = 98.4748
RA_OF_ASC_NODE = 47.7777
ARG_OF_PERICENTER = 276.5498
MEAN_ANOMALY   = 83.0816

EPHEMERIS_TYPE = 0
CLASSIFICATION_TYPE = U
NORAD_CAT_ID   = 38341
ELEMENT_SET_NO = 999
REV_AT_EPOCH   = 74988
BSTAR          = .2576E-3
MEAN_MOTION_DOT = .2816E-4
MEAN_MOTION_DDOT = 0

CCSDS_OMM_VERS = 2.0
CREATION_DATE  = 
ORIGINATOR     = 

OBJECT_NAME    = SHIJIAN-16 (SJ-16)
OBJECT_ID      = 2013-057A
CENTER_NAME    = EARTH
REF_FRAME      = TEME
TIME_SYSTEM    = UTC
MEAN_ELEMENT_THEORY = SGP/SGP4

EPOCH          = 2026-03-20T19:47:03.306912
MEAN_MOTION    = 14.92387288
ECCENTRICITY   = .0015286
INCLINATION    = 74.9739
RA_OF_ASC_NODE = 164.0110
ARG_OF_PERICENTER = 83.8417
MEAN_ANOMALY   = 276.4513

EPHEMERIS_TYPE = 0
CLASSIFICATION_TYPE = U
NORAD_CAT_ID   = 39358
ELEMENT_SET_NO = 999
REV_AT_EPOCH   = 67316
BSTAR          = .51297E-4
MEAN_MOTION_DOT = .497E-5
MEAN_MOTION_DDOT = 0

CCSDS_OMM_VERS = 2.0
CREATION_DATE  = 
ORIGINATOR     = 

OBJECT_NAME    = SL-4 R/B
OBJECT_ID      = 2014-021B
CENTER_NAME    = EARTH
REF_FRAME      = TEME
TIME_SYSTEM    = UTC
MEAN_ELEMENT_THEORY = SGP/SGP4

EPOCH          = 2026-03-20T14:24:19.557504
MEAN_MOTION    = 15.39517295
ECCENTRICITY   = .0096644
INCLINATION    = 51.6053
RA_OF_ASC_NODE = 284.0367
ARG_OF_PERICENTER = 142.7024
MEAN_ANOMALY   = 218.0723

EPHEMERIS_TYPE = 0
CLASSIFICATION_TYPE = U
NORAD_CAT_ID   = 39679
ELEMENT_SET_NO = 999
REV_AT_EPOCH   = 65795
BSTAR          = .30694E-3
MEAN_MOTION_DOT = .13997E-3
MEAN_MOTION_DDOT = 0

