H-2A R/B                
1 28932U 06002B   26079.36408807  .00007879  00000+0  39303-3 0  9993
2 28932  98.2431 227.3087 0052190 204.4299 155.4458 15.16635921 96050
RESURS-DK 1             
1 29228U 06021A   26079.77623799  .00002889  00000+0  17014-3 0  9998
2 29228  69.9338 208.3434 0000782 127.4072 232.7165 15.12817965 89207
CZ-4B R/B               
1 29507U 06046C   26079.36123149  .00003332  00000+0  17003-3 0  9996
2 29507  97.5569 124.2409 0032031 228.6285 131.2193 15.17002992 61665
CZ-2C R/B               
1 31114U 07010B   26079.85702692  .00000114  00000+0  71474-4 0  9993
2 31114  98.3989 192.5766 0057860 261.5037  97.9580 14.20250026981305
COSMO-SKYMED 1          
1 31598U 07023A   26079.83013420  .00002850  00000+0  25535-3 0  9990
2 31598  97.8880 270.9531 0001360  86.9387 273.1990 14.96619517 16575
COSMOS 2428             
1 31792U 07029A   26079.43715114 -.00000015  00000+0  17401-4 0  9993
2 31792  70.9441 180.7865 0009533 266.0902  93.9129 14.12947533965618
SL-16 R/B               
1 31793U 07029B   26079.68485618  .00000346  00000+0  20393-3 0  9993
2 31793  70.9756 149.2735 0002368 276.6412 252.3146 14.14839672966927
KORONAS-FOTON           
1 33504U 09003A   26079.85055904  .00012552  00000+0  27780-3 0  9998
2 33504  82.4268 264.2701 0011792 113.2906 246.9584 15.43580407947466
CZ-2C R/B               
1 37731U 11030B   26079.89341110  .00001334  00000+0  17423-3 0  9997
2 37731  97.8564  36.9338 0051495 315.2259 107.4985 14.81261278791758
H-2A R/B                
1 38341U 12025E   26079.83743385  .00002816  00000+0  25760-3 0  9993
2 38341  98.4748  47.7777 0043087 276.5498  83.0816 14.95240105749886
SHIJIAN-16 (SJ-16)      
1 39358U 13057A   26079.82434383  .00000497  00000+0  51297-4 0  9990
2 39358  74.9739 164.0110 0015286  83.8417 276.4513 14.92387288673168
SL-4 R/B                
1 39679U 14021B   26079.60022636  .00013997  00000+0  30694-3 0  9994
2 39679  51.6053 284.0367 0096644 142.7024 218.0723 15.39517295657957
